     2.11           N: GPS NAV DATA                         RINEX VERSION / TYPE
teqc  2020Oct7      UNAVCO Archive Ops  20210703 02:40:35UTCPGM / RUN BY / DATE
Linux 2.4.21-27.ELsmp|Opteron|gcc|Linux 64|=+               COMMENT
    7.4506D-09  2.2352D-08 -5.9605D-08 -1.1921D-07          ION ALPHA
    9.2160D+04  1.3107D+05 -6.5536D+04 -5.2429D+05          ION BETA
    9.313225746155D-10 3.552713678801D-15   589824     2164 DELTA-UTC: A0,A1,T,W
                                                            END OF HEADER
17 21  7  2 14  0  0.0 4.675579257309D-04 5.911715561524D-12 0.000000000000D+00
    5.800000000000D+01-3.153125000000D+01 4.092313318419D-09 2.453504927654D+00
   -1.605600118637D-06 1.336630678270D-02 7.178634405136D-06 5.153623046875D+03
    4.824000000000D+05 1.676380634308D-07 1.221295918369D+00-1.378357410431D-07
    9.817581480190D-01 2.465937500000D+02-1.564390584496D+00-7.706392430749D-09
   -3.457286867018D-10 1.000000000000D+00 2.164000000000D+03 0.000000000000D+00
    2.000000000000D+00 0.000000000000D+00-1.117587089539D-08 5.800000000000D+01
    4.752180000000D+05 4.000000000000D+00
 9 21  7  2 13 59 44.0-3.538150340319D-04-1.591615728103D-12 0.000000000000D+00
    5.600000000000D+01-3.881250000000D+01 4.560189950216D-09 2.860677537125D+00
   -1.925975084305D-06 1.897525158711D-03 8.625909686089D-06 5.153756301880D+03
    4.823840000000D+05-3.166496753693D-08-1.998182948729D+00 2.793967723846D-08
    9.531997444583D-01 2.089687500000D+02 1.829481171268D+00-7.985332621156D-09
   -1.896507568581D-10 1.000000000000D+00 2.164000000000D+03 0.000000000000D+00
    2.000000000000D+00 0.000000000000D+00 1.396983861923D-09 5.600000000000D+01
    4.752180000000D+05 4.000000000000D+00
30 21  7  2 14  0  0.0-4.460387863219D-04-4.547473508865D-12 0.000000000000D+00
    4.300000000000D+01 5.006250000000D+01 4.997708174606D-09-5.377882861150D-01
    2.697110176086D-06 5.338606890291D-03 9.326264262199D-06 5.153684103012D+03
    4.824000000000D+05 1.117587089539D-07-9.088358101223D-01 5.960464477539D-08
    9.365700363585D-01 1.841562500000D+02-2.750949298023D+00-8.328204045984D-09
    2.007226466182D-10 1.000000000000D+00 2.164000000000D+03 0.000000000000D+00
    2.000000000000D+00 0.000000000000D+00 3.725290298462D-09 4.300000000000D+01
    4.752180000000D+05 4.000000000000D+00
 1 21  7  2 14  0  0.0 6.405320018530D-04-1.170974428533D-11 0.000000000000D+00
    1.520000000000D+02 3.500000000000D+00 4.050168705784D-09 2.070615054000D-01
    3.315508365631D-07 1.104544859845D-02 8.314847946167D-06 5.153681825638D+03
    4.824000000000D+05-4.470348358154D-08 2.218607445677D+00 1.695007085800D-07
    9.847289586680D-01 2.297500000000D+02 8.674579900215D-01-8.006404927474D-09
    3.214419607765D-11 1.000000000000D+00 2.164000000000D+03 0.000000000000D+00
    2.000000000000D+00 0.000000000000D+00 5.122274160385D-09 1.520000000000D+02
    4.752180000000D+05 4.000000000000D+00
21 21  7  2 14  0  0.0 1.287697814405D-04 2.387423592154D-12 0.000000000000D+00
    8.100000000000D+01 2.562500000000D+00 4.516973864378D-09 2.574033466689D+00
    3.594905138016D-07 2.401218004525D-02 7.849186658859D-06 5.153674762726D+03
    4.824000000000D+05 4.023313522339D-07 2.133879012169D+00 1.136213541031D-07
    9.574787725255D-01 2.184062500000D+02-1.118455315559D+00-7.785324290006D-09
   -1.157191058795D-10 1.000000000000D+00 2.164000000000D+03 0.000000000000D+00
    2.000000000000D+00 0.000000000000D+00-1.024454832077D-08 8.100000000000D+01
    4.752180000000D+05 4.000000000000D+00
 8 21  7  2 14  0  0.0-2.729101106524D-05-1.477928890381D-12 0.000000000000D+00
    9.600000000000D+01-1.881250000000D+01 4.561618581152D-09 2.485758033228D+00
   -9.275972843170D-07 6.354453274980D-03 6.953254342079D-06 5.153618864059D+03
    4.824000000000D+05-1.769512891769D-07 1.142769349045D+00 1.210719347000D-07
    9.669596022744D-01 2.496250000000D+02 5.964273999381D-02-8.053549748388D-09
   -1.689356082747D-10 1.000000000000D+00 2.164000000000D+03 0.000000000000D+00
    2.000000000000D+00 0.000000000000D+00 5.122274160385D-09 9.600000000000D+01
    4.752180000000D+05 4.000000000000D+00
 7 21  7  2 14  0  0.0 1.927767880261D-04 9.208633855451D-12 0.000000000000D+00
    7.000000000000D+01 5.196875000000D+01 4.719839457401D-09-3.833522450055D-01
    2.900138497353D-06 1.514306874014D-02 9.251758456230D-06 5.153753896713D+03
    4.824000000000D+05 6.891787052155D-08-9.254573331955D-01 2.440065145493D-07
    9.513541431016D-01 1.992500000000D+02-2.321739596356D+00-8.347847721365D-09
    2.128660095809D-10 1.000000000000D+00 2.164000000000D+03 0.000000000000D+00
    2.000000000000D+00 0.000000000000D+00-1.117587089539D-08 7.000000000000D+01
    4.752180000000D+05 4.000000000000D+00
 5 21  7  2 14  0  0.0-4.669371992350D-05-1.136868377216D-12 0.000000000000D+00
    3.400000000000D+01-1.350000000000D+01 4.731982820364D-09 2.856889656007D+00
   -7.860362529755D-07 6.164820515551D-03 5.910173058510D-06 5.153900703430D+03
    4.824000000000D+05 2.421438694000D-08-3.064851217367D+00-6.332993507385D-08
    9.570707895428D-01 2.628125000000D+02 9.203148001769D-01-8.144624970608D-09
    9.786121916973D-11 1.000000000000D+00 2.164000000000D+03 0.000000000000D+00
    2.000000000000D+00 0.000000000000D+00-1.117587089539D-08 3.400000000000D+01
    4.752180000000D+05 4.000000000000D+00
15 21  7  2 14  0  0.0-1.383409835398D-04 2.614797267597D-12 0.000000000000D+00
    8.700000000000D+01-4.931250000000D+01 5.300577933204D-09 1.536807915110D+00
   -2.646818757057D-06 1.327656977810D-02 7.797032594681D-06 5.153639753342D+03
    4.824000000000D+05-2.253800630569D-07-2.098230260147D+00-1.117587089539D-07
    9.289508708068D-01 2.177500000000D+02 9.953052960835D-01-8.567499727896D-09
   -2.300095808223D-10 1.000000000000D+00 2.164000000000D+03 0.000000000000D+00
    2.000000000000D+00 0.000000000000D+00-1.071020960808D-08 8.700000000000D+01
    4.752480000000D+05 4.000000000000D+00
 6 21  7  2 14  0  0.0 3.448920324445D-05 5.115907697473D-12 0.000000000000D+00
    9.300000000000D+01-4.375000000000D+00 3.923020552410D-09 4.190455341056D-01
   -2.644956111908D-07 2.093661576509D-03 8.821487426758D-06 5.153793888092D+03
    4.824000000000D+05-3.725290298462D-09 2.210356834943D+00-5.587935447693D-09
    9.841709505105D-01 2.233750000000D+02-9.685583230390D-01-7.813539751008D-09
    9.036090675161D-11 1.000000000000D+00 2.164000000000D+03 0.000000000000D+00
    2.000000000000D+00 0.000000000000D+00 4.190951585770D-09 9.300000000000D+01
    4.794660000000D+05 4.000000000000D+00
24 21  7  2 14  0  0.0 1.581399701536D-04 1.580247044330D-11 0.000000000000D+00
    4.800000000000D+01 3.275000000000D+01 5.058782147153D-09 5.790528734307D-01
    1.661479473114D-06 1.118067500647D-02 9.447336196899D-06 5.153726543427D+03
    4.824000000000D+05-9.499490261078D-08-1.004353510235D+00 1.601874828339D-07
    9.347186418462D-01 1.861250000000D+02 7.427565020354D-01-8.386063598924D-09
    2.000083311498D-11 1.000000000000D+00 2.164000000000D+03 0.000000000000D+00
    2.800000000000D+00 0.000000000000D+00 2.793967723846D-09 4.800000000000D+01
    4.812480000000D+05 4.000000000000D+00
19 21  7  2 16  0  0.0 2.107070758939D-05 5.002220859751D-12 0.000000000000D+00
    2.800000000000D+01-2.834375000000D+01 4.220175787261D-09-3.489517058906D-01
   -1.477077603340D-06 9.308067266829D-03 7.716938853264D-06 5.153639841080D+03
    4.896000000000D+05-6.146728992462D-08 1.266366674741D+00-3.166496753693D-08
    9.803012513105D-01 2.428125000000D+02 1.876908162016D+00-8.113552247732D-09
   -1.389343586023D-10 1.000000000000D+00 2.164000000000D+03 0.000000000000D+00
    2.000000000000D+00 0.000000000000D+00-1.536682248116D-08 2.800000000000D+01
    4.824180000000D+05 4.000000000000D+00
13 21  7  2 16  0  0.0 1.524705439806D-04 5.002220859751D-12 0.000000000000D+00
    6.700000000000D+01-3.221875000000D+01 4.198389165475D-09 2.931094430317D+00
   -1.642853021622D-06 5.069066421129D-03 9.307637810707D-06 5.153682521820D+03
    4.896000000000D+05 8.754432201386D-08-1.848991406028D+00 1.862645149231D-09
    9.678679646828D-01 2.024062500000D+02 9.587752500262D-01-7.773180927044D-09
   -1.814361289716D-10 1.000000000000D+00 2.164000000000D+03 0.000000000000D+00
    2.000000000000D+00 0.000000000000D+00-1.117587089539D-08 6.700000000000D+01
    4.824180000000D+05 4.000000000000D+00
14 21  7  2 16  0  0.0 5.672639235854D-05-8.640199666843D-12 0.000000000000D+00
    6.500000000000D+01 3.387500000000D+01 4.822343727116D-09 6.099041523846D-02
    1.836568117142D-06 8.623402100056D-04 5.053356289864D-06 5.153750911713D+03
    4.896000000000D+05-1.862645149231D-08 1.573596711876D-01-2.607703208923D-08
    9.569201075178D-01 2.790937500000D+02 2.898508203667D+00-8.321060891300D-09
    9.786121916973D-11 1.000000000000D+00 2.164000000000D+03 0.000000000000D+00
    2.800000000000D+00 0.000000000000D+00-7.916241884232D-09 6.500000000000D+01
    4.824180000000D+05 4.000000000000D+00
 6 21  7  2 16  0  0.0 3.452645614743D-05 5.115907697473D-12 0.000000000000D+00
    9.600000000000D+01-2.500000000000D-01 3.973379792931D-09 1.469104042995D+00
   -6.146728992462D-08 2.093388582580D-03 8.586794137955D-06 5.153793724060D+03
    4.896000000000D+05 2.607703208923D-08 2.210300674981D+00-1.862645149231D-08
    9.841717390233D-01 2.230312500000D+02-9.685130983895D-01-7.785324290006D-09
    9.286101089098D-11 1.000000000000D+00 2.164000000000D+03 0.000000000000D+00
    2.000000000000D+00 0.000000000000D+00 4.190951585770D-09 9.600000000000D+01
    4.824180000000D+05 4.000000000000D+00
